NORAD_CAT_ID,OBJECT_NAME,OBJECT_TYPE,EPOCH,MEAN_MOTION,ECCENTRICITY,INCLINATION,RA_OF_ASC_NODE,ARG_OF_PERICENTER,MEAN_ANOMALY,BSTAR,MEAN_MOTION_DOT,MEAN_MOTION_DDOT,TLE_LINE0,TLE_LINE1,TLE_LINE2,SEMIMAJOR_AXIS,PERIOD,APOGEE,PERIGEE,DECAYED
53537.0,STARLINK-4120,PAYLOAD,2022-12-19 16:55:51,15.088454,0.000233,53.2206,313.3175,35.9107,324.2042,0.00011088,1.477e-05,0.0,0 STARLINK-4120,1 53537U 22101L   22353.70545973  .00001477  00000-0  11088-3 0  9994,2 53537  53.2206 313.3175 0002330  35.9107 324.2042 15.08845400 18639,6917.864000000001,95.437,541.341,538.117,0.0
53537.0,STARLINK-4120,PAYLOAD,2022-12-20 00:52:47,15.08856289,0.0002305,53.2194,311.8301,37.8088,322.3066,0.00040382,6.147e-05,0.0,0 STARLINK-4120,1 53537U 22101L   22354.03665566  .00006147  00000-0  40382-3 0  9990,2 53537  53.2194 311.8301 0002305  37.8088 322.3066 15.08856289 18687,6917.831,95.437,541.29,538.101,0.0
53537.0,STARLINK-4120,PAYLOAD,2022-12-20 04:03:33,15.088532,0.0002226,53.219,311.2344,36.5701,323.5443,0.00033949,5.121e-05,0.0,0 STARLINK-4120,1 53537U 22101L   22354.16913687  .00005121  00000-0  33949-3 0  9996,2 53537  53.2190 311.2344 0002226  36.5701 323.5443 15.08853200 18709,6917.84,95.437,541.245,538.165,0.0
53537.0,STARLINK-4120,PAYLOAD,2022-12-21 00:43:35,15.08829092,0.0002179,53.22,307.3698,37.4259,322.6885,-3.5157e-05,-8.48e-06,0.0,0 STARLINK-4120,1 53537U 22101L   22355.03026964 -.00000848  00000-0 -35157-4 0  9993,2 53537  53.2200 307.3698 0002179  37.4259 322.6885 15.08829092 18830,6917.9140000000025,95.438,541.286,538.271,0.0
53537.0,STARLINK-4120,PAYLOAD,2022-12-21 02:18:57,15.08831469,0.0002168,53.2192,307.0721,35.5152,324.5984,-0.00014016,-2.518e-05,0.0,0 STARLINK-4120,1 53537U 22101L   22355.09650269 -.00002518  00000-0 -14016-3 0  9996,2 53537  53.2192 307.0721 0002168  35.5152 324.5984 15.08831469 18846,6917.906,95.438,541.271,538.2719999999998,0.0
53537.0,STARLINK-4120,PAYLOAD,2022-12-22 03:45:08,15.08840798,0.0002307,53.2205,302.3158,34.6866,325.4276,-6.6176e-05,-1.341e-05,0.0,0 STARLINK-4120,1 53537U 22101L   22356.15635103 -.00001341  00000-0 -66176-4 0  9992,2 53537  53.2205 302.3158 0002307  34.6866 325.4276 15.08840798 19008,6917.878000000002,95.438,541.339,538.1469999999998,0.0
53537.0,STARLINK-4120,PAYLOAD,2022-12-22 06:55:54,15.08834034,0.0002304,53.2199,301.7197,38.7676,321.3481,9.4522e-05,1.216e-05,0.0,0 STARLINK-4120,1 53537U 22101L   22356.28883084  .00001216  00000-0  94522-4 0  9994,2 53537  53.2199 301.7197 0002304  38.7676 321.3481 15.08834034 19028,6917.899,95.438,541.3580000000002,538.17,0.0
53537.0,STARLINK-4120,PAYLOAD,2022-12-22 13:17:27,15.08841875,0.0002323,53.2207,300.5316,42.6557,317.4615,9.9216e-05,1.291e-05,0.0,0 STARLINK-4120,1 53537U 22101L   22356.55378767  .00001291  00000-0  99216-4 0  9999,2 53537  53.2207 300.5316 0002323  42.6557 317.4615 15.08841875 19061,6917.875,95.437,541.347,538.133,0.0
53537.0,STARLINK-4120,PAYLOAD,2022-12-23 05:11:19,15.0882422,0.0002251,53.2192,297.5583,37.7645,322.3505,3.9954e-05,3.47e-06,0.0,0 STARLINK-4120,1 53537U 22101L   22357.21619950  .00000347  00000-0  39954-4 0  9999,2 53537  53.2192 297.5583 0002251  37.7645 322.3505 15.08824220 19167,6917.929,95.439,541.351,538.236,0.0
53537.0,STARLINK-4120,PAYLOAD,2022-12-23 13:08:15,15.08829611,0.0002331,53.2198,296.0709,39.8268,320.2895,0.0002583,3.824e-05,0.0,0 STARLINK-4120,1 53537U 22101L   22357.54740257  .00003824  00000-0  25830-3 0  9990,2 53537  53.2198 296.0709 0002331  39.8268 320.2895 15.08829611 19214,6917.9119999999975,95.438,541.39,538.165,0.0
53537.0,STARLINK-4120,PAYLOAD,2022-12-23 19:29:47,15.08840722,0.0002239,53.2197,294.882,42.5096,317.6069,0.00022252,3.255e-05,0.0,0 STARLINK-4120,1 53537U 22101L   22357.81235844  .00003255  00000-0  22252-3 0  9994,2 53537  53.2197 294.8820 0002239  42.5096 317.6069 15.08840722 19253,6917.878000000002,95.438,541.2919999999998,538.194,0.0
53537.0,STARLINK-4120,PAYLOAD,2022-12-24 08:12:52,15.08860421,0.0002334,53.2189,292.5032,42.5289,317.5884,0.0010143,0.00015901,0.0,0 STARLINK-4120,1 53537U 22101L   22358.34227416  .00015901  00000-0  10143-2 0  9995,2 53537  53.2189 292.5032 0002334  42.5289 317.5884 15.08860421 19335,6917.818,95.436,541.298,538.068,0.0
53537.0,STARLINK-4120,PAYLOAD,2022-12-24 12:59:02,15.08854772,0.0002527,53.219,291.6107,41.6751,318.4433,0.00069271,0.00010758,0.0,0 STARLINK-4120,1 53537U 22101L   22358.54099567  .00010758  00000-0  69271-3 0  9993,2 53537  53.2190 291.6107 0002527  41.6751 318.4433 15.08854772 19363,6917.835,95.437,541.448,537.952,0.0
53537.0,STARLINK-4120,PAYLOAD,2022-12-25 04:52:52,15.08851625,0.0002468,53.2186,288.6384,31.8768,328.2373,0.0001664,2.362e-05,0.0,0 STARLINK-4120,1 53537U 22101L   22359.20338997  .00002362  00000-0  16640-3 0  9994,2 53537  53.2186 288.6384 0002468  31.8768 328.2373 15.08851625 19461,6917.845,95.437,541.4169999999998,538.003,0.0
53537.0,STARLINK-4120,PAYLOAD,2022-12-25 12:49:48,15.088394199999998,0.0002386,53.2183,287.1497,40.6257,319.4912,-9.6747e-05,-1.828e-05,0.0,0 STARLINK-4120,1 53537U 22101L   22359.53459341 -.00001828  00000-0 -96747-4 0  9992,2 53537  53.2183 287.1497 0002386  40.6257 319.4912 15.08839420 19513,6917.882,95.438,541.398,538.097,0.0
53537.0,STARLINK-4120,PAYLOAD,2022-12-26 12:40:35,15.08846144,0.0002407,53.2179,282.689,42.9475,317.1704,0.00028245,4.211e-05,0.0,0 STARLINK-4120,1 53537U 22101L   22360.52819283  .00004211  00000-0  28245-3 0  9992,2 53537  53.2179 282.6890 0002407  42.9475 317.1704 15.08846144 19667,6917.861999999999,95.437,541.3919999999998,538.061,0.0
53537.0,STARLINK-4120,PAYLOAD,2022-12-26 19:02:08,15.08848612,0.0002392,53.2185,281.4994,44.0869,316.0314,0.00031303,4.698e-05,0.0,0 STARLINK-4120,1 53537U 22101L   22360.79315271  .00004698  00000-0  31303-3 0  9997,2 53537  53.2185 281.4994 0002392  44.0869 316.0314 15.08848612 19701,6917.854,95.437,541.374,538.064,0.0
53537.0,STARLINK-4120,PAYLOAD,2022-12-27 04:34:26,15.08858827,0.0002366,53.2178,279.7157,44.2374,315.8807,0.0005453999999999,8.407e-05,0.0,0 STARLINK-4120,1 53537U 22101L   22361.19058780  .00008407  00000-0  54540-3 0  9991,2 53537  53.2178 279.7157 0002366  44.2374 315.8807 15.08858827 19767,6917.823,95.436,541.325,538.0509999999998,0.0
53537.0,STARLINK-4120,PAYLOAD,2022-12-27 23:39:03,15.08863558,0.0002158,53.2181,276.1472,38.9073,321.2075,0.00036606,5.546e-05,0.0,0 STARLINK-4120,1 53537U 22101L   22361.98545706  .00005546  00000-0  36606-3 0  9991,2 53537  53.2181 276.1472 0002158  38.9073 321.2075 15.08863558 19885,6917.808000000001,95.436,541.1659999999998,538.181,0.0
53537.0,STARLINK-4120,PAYLOAD,2022-12-28 01:14:26,15.08858488,0.000237,53.2193,275.8496,39.9382,320.1784,0.0002039,2.9600000000000005e-05,0.0,0 STARLINK-4120,1 53537U 22101L   22362.05169768  .00002960  00000-0  20390-3 0  9990,2 53537  53.2193 275.8496 0002370  39.9382 320.1784 15.08858488 19892,6917.824000000001,95.436,541.328,538.049,0.0
53537.0,STARLINK-4120,PAYLOAD,2022-12-29 04:16:00,15.08833111,0.0002088,53.218,270.7976,35.786,324.3272,-0.00020898,-3.612e-05,0.0,0 STARLINK-4120,1 53537U 22101L   22363.17778565 -.00003612  00000-0 -20898-3 0  9995,2 53537  53.2180 270.7976 0002088  35.7860 324.3272 15.08833111 20061,6917.901,95.438,541.211,538.322,0.0
53537.0,STARLINK-4120,PAYLOAD,2022-12-29 10:37:33,15.08818323,0.0002325,53.2185,269.6063,37.2934,322.822,-0.00040858,-6.781e-05,0.0,0 STARLINK-4120,1 53537U 22101L   22363.44275374 -.00006781  00000-0 -40858-3 0  9993,2 53537  53.2185 269.6063 0002325  37.2934 322.8220 15.08818323 20102,6917.946999999999,95.439,541.42,538.203,0.0
53537.0,STARLINK-4120,PAYLOAD,2022-12-30 10:28:21,15.08836884,0.0001544,53.2192,265.1467,59.9533,300.1612,-8.5882e-05,-1.654e-05,0.0,0 STARLINK-4120,1 53537U 22101L   22364.43636095 -.00001654  00000-0 -85882-4 0  9995,2 53537  53.2192 265.1467 0001544  59.9533 300.1612 15.08836884 20259,6917.89,95.438,540.823,538.687,0.0
53537.0,STARLINK-4120,PAYLOAD,2022-12-31 02:22:13,15.08861335,0.0002292,53.218,262.1729,38.4327,321.6828,0.0012205,0.00019201,0.0,0 STARLINK-4120,1 53537U 22101L   22365.09876617  .00019201  00000-0  12205-2 0  9996,2 53537  53.2180 262.1729 0002292  38.4327 321.6828 15.08861335 20355,6917.815,95.436,541.266,538.095,0.0
53537.0,STARLINK-4120,PAYLOAD,2022-12-31 10:19:08,15.08882012,0.0002325,53.2184,260.686,39.3136,320.8025,0.0013154999999999,0.00020735,0.0,0 STARLINK-4120,1 53537U 22101L   22365.42995729  .00020735  00000-0  13155-2 0  9998,2 53537  53.2184 260.6860 0002325  39.3136 320.8025 15.08882012 20404,6917.752,95.435,541.225,538.009,0.0
53537.0,STARLINK-4120,PAYLOAD,2023-01-01 02:12:59,15.08847614,0.0002318,53.2175,257.7132,34.5572,325.557,0.00031304,4.698e-05,0.0,0 STARLINK-4120,1 53537U 22101L   23001.09235232  .00004698  00000-0  31304-3 0  9992,2 53537  53.2175 257.7132 0002318  34.5572 325.5570 15.08847614 20503,6917.857,95.437,541.326,538.119,0.0
53537.0,STARLINK-4120,PAYLOAD,2023-01-01 10:09:55,15.08828961,0.0002333,53.2175,256.226,40.5991,319.5175,0.00076631,0.00011925,0.0,0 STARLINK-4120,1 53537U 22101L   23001.42355746  .00011925  00000-0  76631-3 0  9995,2 53537  53.2175 256.2260 0002333  40.5991 319.5175 15.08828961 20551,6917.9140000000025,95.438,541.393,538.165,0.0
53537.0,STARLINK-4120,PAYLOAD,2023-01-01 22:53:01,15.08834081,0.0003211,53.2175,253.8484,49.6783,310.4489,0.0010930999999999,0.00017149,0.0,0 STARLINK-4120,1 53537U 22101L   23001.95348679  .00017149  00000-0  10931-2 0  9994,2 53537  53.2175 253.8484 0003211  49.6783 310.4489 15.08834081 20634,6917.898,95.438,541.985,537.5419999999998,0.0
53537.0,STARLINK-4120,PAYLOAD,2023-01-02 02:03:47,15.0881764,0.0001825,53.2173,253.2515,33.7522,326.3586,0.00062749,9.707e-05,0.0,0 STARLINK-4120,1 53537U 22101L   23002.08597049  .00009707  00000-0  62749-3 0  9992,2 53537  53.2173 253.2515 0001825  33.7522 326.3586 15.08817640 20653,6917.949000000001,95.439,541.076,538.5509999999998,0.0
